MALLIGYONG-1            
1 58400U 23179A   24211.86848062  .00006490  00000+0  28994-3 0  9994
2 58400  97.3981  97.9943 0003319  72.3061 287.8537 15.21675356 38217
